[
    {
        "OBJECT_NAME": "COSMOS 2418 [GLONASS-M]",
        "OBJECT_ID": "2005-050B",
        "EPOCH": "2025-05-03T17:54:48.615264",
        "MEAN_MOTION": 2.131064,
        "ECCENTRICITY": 0.0011616,
        "INCLINATION": 65.8107,
        "RA_OF_ASC_NODE": 330.0213,
        "ARG_OF_PERICENTER": 282.0401,
        "MEAN_ANOMALY": 256.4271,
        "EPHEMERIS_TYPE": 0,
        "CLASSIFICATION_TYPE": "U",
        "NORAD_CAT_ID": 28916,
        "ELEMENT_SET_NO": 999,
        "REV_AT_EPOCH": 15053,
        "BSTAR": 0,
        "MEAN_MOTION_DOT": -5e-07,
        "MEAN_MOTION_DDOT": 0
    },
    {
        "OBJECT_NAME": "COSMOS 2417 [GLONASS]",
        "OBJECT_ID": "2005-050C",
        "EPOCH": "2025-05-02T05:22:19.890912",
        "MEAN_MOTION": 2.131042,
        "ECCENTRICITY": 0.0015014,
        "INCLINATION": 65.7924,
        "RA_OF_ASC_NODE": 329.9381,
        "ARG_OF_PERICENTER": 93.6921,
        "MEAN_ANOMALY": 73.6753,
        "EPHEMERIS_TYPE": 0,
        "CLASSIFICATION_TYPE": "U",
        "NORAD_CAT_ID": 28917,
        "ELEMENT_SET_NO": 999,
        "REV_AT_EPOCH": 15061,
        "BSTAR": 0,
        "MEAN_MOTION_DOT": -5.2e-07,
        "MEAN_MOTION_DDOT": 0
    },
    {
        "OBJECT_NAME": "COSMOS 2425 [GLONASS-M]",
        "OBJECT_ID": "2006-062A",
        "EPOCH": "2025-05-03T11:43:50.961792",
        "MEAN_MOTION": 2.13116385,
        "ECCENTRICITY": 0.0022313,
        "INCLINATION": 64.6891,
        "RA_OF_ASC_NODE": 207.9208,
        "ARG_OF_PERICENTER": 353.0238,
        "MEAN_ANOMALY": 71.3725,
        "EPHEMERIS_TYPE": 0,
        "CLASSIFICATION_TYPE": "U",
        "NORAD_CAT_ID": 29670,
        "ELEMENT_SET_NO": 999,
        "REV_AT_EPOCH": 14285,
        "BSTAR": 0,
        "MEAN_MOTION_DOT": -1.7e-07,
        "MEAN_MOTION_DDOT": 0
    },
    {
        "OBJECT_NAME": "COSMOS 2426 [GLONASS-M]",
        "OBJECT_ID": "2006-062B",
        "EPOCH": "2025-05-02T07:47:43.130400",
        "MEAN_MOTION": 2.12963368,
        "ECCENTRICITY": 0.0021685,
        "INCLINATION": 64.6965,
        "RA_OF_ASC_NODE": 208.1915,
        "ARG_OF_PERICENTER": 179.7484,
        "MEAN_ANOMALY": 236.2189,
        "EPHEMERIS_TYPE": 0,
        "CLASSIFICATION_TYPE": "U",
        "NORAD_CAT_ID": 29671,
        "ELEMENT_SET_NO": 999,
        "REV_AT_EPOCH": 14280,
        "BSTAR": 0,
        "MEAN_MOTION_DOT": -2e-08,
        "MEAN_MOTION_DDOT": 0
    },
    {
        "OBJECT_NAME": "COSMOS 2424 [GLONASS-M]",
        "OBJECT_ID": "2006-062C",
        "EPOCH": "2025-05-02T07:52:43.668480",
        "MEAN_MOTION": 2.13122689,
        "ECCENTRICITY": 0.0019862,
        "INCLINATION": 64.6929,
        "RA_OF_ASC_NODE": 207.9746,
        "ARG_OF_PERICENTER": 173.9061,
        "MEAN_ANOMALY": 186.168,
        "EPHEMERIS_TYPE": 0,
        "CLASSIFICATION_TYPE": "U",
        "NORAD_CAT_ID": 29672,
        "ELEMENT_SET_NO": 999,
        "REV_AT_EPOCH": 14282,
        "BSTAR": 0,
        "MEAN_MOTION_DOT": -2e-08,
        "MEAN_MOTION_DDOT": 0
    },
    {
        "OBJECT_NAME": "COSMOS 2432 [GLONASS-M]",
        "OBJECT_ID": "2007-052B",
        "EPOCH": "2025-05-02T03:38:38.844672",
        "MEAN_MOTION": 2.13103166,
        "ECCENTRICITY": 0.0009359,
        "INCLINATION": 65.8131,
        "RA_OF_ASC_NODE": 329.8539,
        "ARG_OF_PERICENTER": 337.6861,
        "MEAN_ANOMALY": 202.5423,
        "EPHEMERIS_TYPE": 0,
        "CLASSIFICATION_TYPE": "U",
        "NORAD_CAT_ID": 32276,
        "ELEMENT_SET_NO": 999,
        "REV_AT_EPOCH": 13632,
        "BSTAR": 0,
        "MEAN_MOTION_DOT": -5.2e-07,
        "MEAN_MOTION_DDOT": 0
    },
    {
        "OBJECT_NAME": "COSMOS 2435 [GLONASS-M]",
        "OBJECT_ID": "2007-065B",
        "EPOCH": "2025-05-03T05:22:42.936384",
        "MEAN_MOTION": 2.13115334,
        "ECCENTRICITY": 0.0024555,
        "INCLINATION": 64.3179,
        "RA_OF_ASC_NODE": 205.7435,
        "ARG_OF_PERICENTER": 356.6946,
        "MEAN_ANOMALY": 3.3399,
        "EPHEMERIS_TYPE": 0,
        "CLASSIFICATION_TYPE": "U",
        "NORAD_CAT_ID": 32394,
        "ELEMENT_SET_NO": 999,
        "REV_AT_EPOCH": 13500,
        "BSTAR": 0,
        "MEAN_MOTION_DOT": -1.3e-07,
        "MEAN_MOTION_DDOT": 0
    },
    {
        "OBJECT_NAME": "COSMOS 2442 [GLONASS-M]",
        "OBJECT_ID": "2008-046A",
        "EPOCH": "2025-05-02T07:37:28.687296",
        "MEAN_MOTION": 2.13108056,
        "ECCENTRICITY": 0.0018462,
        "INCLINATION": 65.6888,
        "RA_OF_ASC_NODE": 328.7104,
        "ARG_OF_PERICENTER": 307.6007,
        "MEAN_ANOMALY": 180.7349,
        "EPHEMERIS_TYPE": 0,
        "CLASSIFICATION_TYPE": "U",
        "NORAD_CAT_ID": 33378,
        "ELEMENT_SET_NO": 999,
        "REV_AT_EPOCH": 12918,
        "BSTAR": 0,
        "MEAN_MOTION_DOT": -5.1e-07,
        "MEAN_MOTION_DDOT": 0
    }
]