33378,COSMOS 2442 [GLONASS-M],2008,675.71,-1.0,-,65.69,Inactive,0,MEO,Kazakhstan,Russia/USSR,Unknown,Unknown,Unknown,1 33378U 08046A   25122.31769314 -.00000051  00000+0  00000+0 0  9993,2 33378  65.6888 328.7104 0018462 307.6007 180.7349  2.13108056129185,2.13108056,0.0018462,MEO
28916,COSMOS 2418 [GLONASS-M],2005,675.72,-1.0,-,65.81,Inactive,0,MEO,Kazakhstan,Russia/USSR,Unknown,Unknown,Unknown,1 28916U 05050B   25123.74639601 -.00000050  00000+0  00000+0 0  9999,2 28916  65.8107 330.0213 0011616 282.0401 256.4271  2.13106400150537,2.131064,0.0011616,MEO
28917,COSMOS 2417 [GLONASS],2005,675.73,-1.0,-,65.79,Inactive,0,MEO,Kazakhstan,Russia/USSR,Unknown,Unknown,Unknown,1 28917U 05050C   25122.22384133 -.00000052  00000+0  00000+0 0  9991,2 28917  65.7924 329.9381 0015014  93.6921  73.6753  2.13104200150615,2.131042,0.0015014,MEO
29670,COSMOS 2425 [GLONASS-M],2006,675.69,1480.0,-,64.69,Inactive,1,MEO,Kazakhstan,Russia/USSR,Commercial/Military,Navigation (Global or Regional Positioning),Proton,1 29670U 06062A   25123.48878428 -.00000017  00000+0  00000+0 0  9997,2 29670  64.6891 207.9208 0022313 353.0238  71.3725  2.13116385142858,2.13116385,0.0022313,MEO
29671,COSMOS 2426 [GLONASS-M],2006,676.17,1480.0,-,64.7,Inactive,1,MEO,Kazakhstan,Russia/USSR,Commercial/Military,Navigation (Global or Regional Positioning),Proton,1 29671U 06062B   25122.32480475 -.00000002  00000+0  00000+0 0  9995,2 29671  64.6965 208.1915 0021685 179.7484 236.2189  2.12963368142807,2.12963368,0.0021685,MEO
29672,COSMOS 2424 [GLONASS-M],2006,675.67,-1.0,-,64.69,Inactive,0,MEO,Kazakhstan,Russia/USSR,Unknown,Unknown,Unknown,1 29672U 06062C   25122.32828320 -.00000002  00000+0  00000+0 0  9991,2 29672  64.6929 207.9746 0019862 173.9061 186.1680  2.13122689142823,2.13122689,0.0019862,MEO
32394,COSMOS 2435 [GLONASS-M],2007,675.69,-1.0,-,64.32,Inactive,0,MEO,Kazakhstan,Russia/USSR,Unknown,Unknown,Unknown,1 32394U 07065B   25123.22410806 -.00000013  00000+0  00000+0 0  9998,2 32394  64.3179 205.7435 0024555 356.6946   3.3399  2.13115334135008,2.13115334,0.0024555,MEO
32276,COSMOS 2432 [GLONASS-M],2007,675.73,1480.0,+,65.81,Active,1,MEO,Kazakhstan,Russia/USSR,Commercial/Military,Navigation (Global or Regional Positioning),Proton,1 32276U 07052B   25122.15183848 -.00000052  00000+0  00000+0 0  9990,2 32276  65.8131 329.8539 0009359 337.6861 202.5423  2.13103166136321,2.13103166,0.0009359,MEO
